$$SOE
2461295.500000000, A.D. 2026-Sep-12 00:00:00.0000, 2.959856682929593E+05, 2.736545080737309E+08, -7.098135201829216E+07,
2461302.500000000, A.D. 2026-Sep-19 00:00:00.0000, -1.246734652854740E+07, 2.730669060989034E+08, -7.446321815430680E+07,
2461309.500000000, A.D. 2026-Sep-26 00:00:00.0000, -2.520416767288386E+07, 2.718965041741437E+08, -7.778614449971353E+07,
2461316.500000000, A.D. 2026-Oct-03 00:00:00.0000, -3.788764406558558E+07, 2.701495499386617E+08, -8.094411016734792E+07,
2461323.500000000, A.D. 2026-Oct-10 00:00:00.0000, -5.049140939297707E+07, 2.678335034351691E+08, -8.393154250638871E+07,
2461330.500000000, A.D. 2026-Oct-17 00:00:00.0000, -6.298962019732209E+07, 2.649569875646136E+08, -8.674332000777733E+07,
2461337.500000000, A.D. 2026-Oct-24 00:00:00.0000, -7.535700706448494E+07, 2.615297367435895E+08, -8.937477355230294E+07,
2461344.500000000, A.D. 2026-Oct-31 00:00:00.0000, -8.756892145012952E+07, 2.575625440901296E+08, -9.182168612313986E+07,
2461351.500000000, A.D. 2026-Nov-07 00:00:00.0000, -9.960137785978803E+07, 2.530672075821852E+08, -9.408029111883524E+07,
2461358.500000000, A.D. 2026-Nov-14 00:00:00.0000, -1.114310912686153E+08, 2.480564764235677E+08, -9.614726932727312E+07,
2461365.500000000, A.D. 2026-Nov-21 00:00:00.0000, -1.230355117059269E+08, 2.425439986264059E+08, -9.801974445941755E+07,
2461372.500000000, A.D. 2026-Nov-28 00:00:00.0000, -1.343928571272334E+08, 2.365442671013214E+08, -9.969527751443273E+07,
2461379.500000000, A.D. 2026-Dec-05 00:00:00.0000, -1.454821411009569E+08, 2.300725638571909E+08, -1.011718604651513E+08,
2461386.500000000, A.D. 2026-Dec-12 00:00:00.0000, -1.562831953227452E+08, 2.231449056642117E+08, -1.024479091389391E+08,
2461393.500000000, A.D. 2026-Dec-19 00:00:00.0000, -1.667766890198692E+08, 2.157779914134485E+08, -1.035222552354006E+08,
2461400.500000000, A.D. 2026-Dec-26 00:00:00.0000, -1.769441455645392E+08, 2.079891504947386E+08, -1.043941376347850E+08,
2461407.500000000, A.D. 2027-Jan-02 00:00:00.0000, -1.867679562103145E+08, 1.997962921592573E+08, -1.050631931228373E+08,
2461414.500000000, A.D. 2027-Jan-09 00:00:00.0000, -1.962313910380591E+08, 1.912178560171253E+08, -1.055294466235825E+08,
2461421.500000000, A.D. 2027-Jan-16 00:00:00.0000, -2.053186072884446E+08, 1.822727637874265E+08, -1.057933010288002E+08,
2461428.500000000, A.D. 2027-Jan-23 00:00:00.0000, -2.140146552472549E+08, 1.729803723535848E+08, -1.058555267218573E+08,
2461435.500000000, A.D. 2027-Jan-30 00:00:00.0000, -2.223054816996819E+08, 1.633604281542975E+08, -1.057172509038417E+08,
2461442.500000000, A.D. 2027-Feb-06 00:00:00.0000, -2.301779307223809E+08, 1.534330233103834E+08, -1.053799468087988E+08,
2461449.500000000, A.D. 2027-Feb-13 00:00:00.0000, -2.376197424601273E+08, 1.432185547468454E+08, -1.048454227290782E+08,
2461456.500000000, A.D. 2027-Feb-20 00:00:00.0000, -2.446195524350804E+08, 1.327376855405720E+08, -1.041158107544870E+08,
2461463.500000000, A.D. 2027-Feb-27 00:00:00.0000, -2.511668901682158E+08, 1.220113052895045E+08, -1.031935556649795E+08,
2461470.500000000, A.D. 2027-Mar-06 00:00:00.0000, -2.572521742542841E+08, 1.110604914144746E+08, -1.020814041294791E+08,
2461477.500000000, A.D. 2027-Mar-13 00:00:00.0000, -2.628667056504570E+08, 9.990647340758011E+07, -1.007823939277037E+08,
2461484.500000000, A.D. 2027-Mar-20 00:00:00.0000, -2.680026604683531E+08, 8.857059915344110E+07, -9.929984320064786E+07,
2461491.500000000, A.D. 2027-Mar-27 00:00:00.0000, -2.726530822134873E+08, 7.707430273400532E+07, -9.763733983027928E+07,
2461498.500000000, A.D. 2027-Apr-03 00:00:00.0000, -2.768118734022537E+08, 6.543907362054536E+07, -9.579873100016311E+07,
2461505.500000000, A.D. 2027-Apr-10 00:00:00.0000, -2.804737866185673E+08, 5.368642722037050E+07, -9.378811296452790E+07,
2461512.500000000, A.D. 2027-Apr-17 00:00:00.0000, -2.836344151019350E+08, 4.183787670332463E+07, -9.160982104750748E+07,
2461519.500000000, A.D. 2027-Apr-24 00:00:00.0000, -2.862901828918827E+08, 2.991490598048684E+07, -8.926841989794628E+07,
2461526.500000000, A.D. 2027-May-01 00:00:00.0000, -2.884383343234723E+08, 1.793894379295690E+07, -8.676869403290516E+07,
2461533.500000000, A.D. 2027-May-08 00:00:00.0000, -2.900769226509301E+08, 5.931339584923562E+06, -8.411563864019604E+07,
2461540.500000000, A.D. 2027-May-15 00:00:00.0000, -2.912047993713212E+08, -6.086657964366190E+06, -8.131445042462544E+07,
2461547.500000000, A.D. 2027-May-22 00:00:00.0000, -2.918216058824238E+08, -1.809392242392495E+07, -7.837051856614101E+07,
2461554.500000000, A.D. 2027-May-29 00:00:00.0000, -2.919277641850882E+08, -3.006947265781650E+07, -7.528941621701221E+07,
2461561.500000000, A.D. 2027-Jun-05 00:00:00.0000, -2.915244657963043E+08, -4.199249437950806E+07, -7.207689235450891E+07,
2461568.500000000, A.D. 2027-Jun-12 00:00:00.0000, -2.906136609162693E+08, -5.384235986375286E+07, -6.873886375467260E+07,
2461575.500000000, A.D. 2027-Jun-19 00:00:00.0000, -2.891980482142563E+08, -6.559864683887473E+07, -6.528140712167428E+07,
2461582.500000000, A.D. 2027-Jun-26 00:00:00.0000, -2.872810649869878E+08, -7.724115690449077E+07, -6.171075141026641E+07,
2461589.500000000, A.D. 2027-Jul-03 00:00:00.0000, -2.848668775820303E+08, -8.874993354492541E+07, -5.803327033941339E+07,
2461596.500000000, A.D. 2027-Jul-10 00:00:00.0000, -2.819603720641257E+08, -1.001052798071915E+08, -5.425547508279881E+07,
2461603.500000000, A.D. 2027-Jul-17 00:00:00.0000, -2.785671450955712E+08, -1.112877757597220E+08, -5.038400712427814E+07,
2461610.500000000, A.D. 2027-Jul-24 00:00:00.0000, -2.746934948757950E+08, -1.222782958705513E+08, -4.642563127845210E+07,
2461617.500000000, A.D. 2027-Jul-31 00:00:00.0000, -2.703464117243649E+08, -1.330580261429478E+08, -4.238722887444285E+07,
2461624.500000000, A.D. 2027-Aug-07 00:00:00.0000, -2.655335684968863E+08, -1.436084799273786E+08, -3.827579096853515E+07,
2461631.500000000, A.D. 2027-Aug-14 00:00:00.0000, -2.602633131162115E+08, -1.539115127321568E+08, -3.409841137265029E+07,
2461638.500000000, A.D. 2027-Aug-21 00:00:00.0000, -2.545446625792713E+08, -1.639493394671842E+08, -2.986227980828623E+07,
2461645.500000000, A.D. 2027-Aug-28 00:00:00.0000, -2.483872949870942E+08, -1.737045529859170E+08, -2.557467537997869E+07,
2461652.500000000, A.D. 2027-Sep-04 00:00:00.0000, -2.418015407510632E+08, -1.831601414842688E+08, -2.124296003018126E+07,
2461659.500000000, A.D. 2027-Sep-11 00:00:00.0000, -2.347983743317092E+08, -1.922995054734218E+08, -1.687457187406264E+07,
2461666.500000000, A.D. 2027-Sep-18 00:00:00.0000, -2.273894063306517E+08, -2.011064750329929E+08, -1.247701845240165E+07,
2461673.500000000, A.D. 2027-Sep-25 00:00:00.0000, -2.195868756619497E+08, -2.095653274794204E+08, -8.057869903519541E+06,
2461680.500000000, A.D. 2027-Oct-02 00:00:00.0000, -2.114036416849015E+08, -2.176608054698753E+08, -3.624752029951125E+06,
2461687.500000000, A.D. 2027-Oct-09 00:00:00.0000, -2.028531762227298E+08, -2.253781355766366E+08, 8.146607702709287E+05,
2461694.500000000, A.D. 2027-Oct-16 00:00:00.0000, -1.939495553298559E+08, -2.327030474057806E+08, 5.252652729310468E+06,
2461701.500000000, A.D. 2027-Oct-23 00:00:00.0000, -1.847074504565157E+08, -2.396217932901114E+08, 9.681474094042286E+06,
2461708.500000000, A.D. 2027-Oct-30 00:00:00.0000, -1.751421185459810E+08, -2.461211679856958E+08, 1.409334870607834E+07,
2461715.500000000, A.D. 2027-Nov-06 00:00:00.0000, -1.652693921522661E+08, -2.521885272876728E+08, 1.848048199867369E+07,
2461722.500000000, A.D. 2027-Nov-13 00:00:00.0000, -1.551056714948565E+08, -2.578118076717178E+08, 2.283506945029843E+07,
2461729.500000000, A.D. 2027-Nov-20 00:00:00.0000, -1.446679154738964E+08, -2.629795491618404E+08, 2.714930508086416E+07,
2461736.500000000, A.D. 2027-Nov-27 00:00:00.0000, -1.339736299433878E+08, -2.676809184630185E+08, 3.141539011603886E+07,
2461743.500000000, A.D. 2027-Dec-04 00:00:00.0000, -1.230408551702276E+08, -2.719057314367473E+08, 3.562554210989890E+07,
2461750.500000000, A.D. 2027-Dec-11 00:00:00.0000, -1.118881529265113E+08, -2.756444758666340E+08, 3.977200452505074E+07,
2461757.500000000, A.D. 2027-Dec-18 00:00:00.0000, -1.005345928318577E+08, -2.788883348275985E+08, 4.384705674156782E+07,
2461764.500000000, A.D. 2027-Dec-25 00:00:00.0000, -8.899973768026479E+07, -2.816292106287422E+08, 4.784302450184217E+07,
2461771.500000000, A.D. 2028-Jan-01 00:00:00.0000, -7.730362759462798E+07, -2.838597492793127E+08, 5.175229080916934E+07,
$$EOE